COSMOS 2576             
1 59773U 24092A   26068.82603826  .00015211  00000+0  56283-3 0  9991
2 59773  97.4253 186.0053 0005946 159.7731 200.3745 15.27760963101271
STARLINK-35696          
1 66489U 25263E   26068.13124291  .00055788  00000+0  20198-2 0  9990
2 66489  43.0025 353.8370 0001575 273.5250  86.5422 15.27607879 18817
